{
  "type": "FeatureCollection",
  "features": [
    {
      "type": "Feature",
      "properties": {
        "norad_id": 33665,
        "name": "FENGYUN 1C DEB",
        "group": "fengyun-1c-debris",
        "lat": 4.549439909929339,
        "lon": -66.47631660930786,
        "alt_km": 965.9188533779497,
        "timestamp": "2025-12-21T07:34:34.802722+00:00",
        "meta_object_name": "FENGYUN 1C DEB",
        "meta_object_id": "1999-025DFA",
        "meta_epoch": "2025-12-20T03:25:09.204960",
        "meta_mean_motion": 14.03669728,
        "meta_eccentricity": 0.04554396,
        "meta_inclination": 99.0218,
        "meta_ra_of_asc_node": 111.6308,
        "meta_arg_of_pericenter": 71.5821,
        "meta_mean_anomaly": 293.4295,
        "meta_ephemeris_type": 0,
        "meta_classification_type": "U",
        "meta_norad_cat_id": 33665,
        "meta_element_set_no": 999,
        "meta_rev_at_epoch": 92695,
        "meta_bstar": 0.00032083193,
        "meta_mean_motion_dot": 1.229e-05,
        "meta_mean_motion_ddot": 0,
        "tle_line1": "1 33665U 99025DFA 25354.14246765  .00001229  00000+0  32083-3 0  9994",
        "tle_line2": "2 33665  99.0218 111.6308 0455439  71.5821 293.4295 14.03669728926959"
      },
      "geometry": {
        "type": "Point",
        "coordinates": [
          -66.47631660930786,
          4.549439909929339
        ]
      }
    },
    {
      "type": "Feature",
      "properties": {
        "norad_id": 33673,
        "name": "FENGYUN 1C DEB",
        "group": "fengyun-1c-debris",
        "lat": -53.97590063553725,
        "lon": -150.84564867307844,
        "alt_km": 850.6998776617929,
        "timestamp": "2025-12-21T07:34:34.802732+00:00",
        "meta_object_name": "FENGYUN 1C DEB",
        "meta_object_id": "1999-025DFJ",
        "meta_epoch": "2025-12-14T22:10:11.155872",
        "meta_mean_motion": 13.95539618,
        "meta_eccentricity": 0.01078755,
        "meta_inclination": 99.3438,
        "meta_ra_of_asc_node": 35.7625,
        "meta_arg_of_pericenter": 218.3859,
        "meta_mean_anomaly": 320.4406,
        "meta_ephemeris_type": 0,
        "meta_classification_type": "U",
        "meta_norad_cat_id": 33673,
        "meta_element_set_no": 999,
        "meta_rev_at_epoch": 89932,
        "meta_bstar": 0.00032222239,
        "meta_mean_motion_dot": 4.13e-06,
        "meta_mean_motion_ddot": 0,
        "tle_line1": "1 33673U 99025DFJ 25348.92374023  .00000413  00000+0  32222-3 0  9990",
        "tle_line2": "2 33673  99.3438  35.7625 0107875 218.3859 320.4406 13.95539618899322"
      },
      "geometry": {
        "type": "Point",
        "coordinates": [
          -150.84564867307844,
          -53.97590063553725
        ]
      }
    },
    {
      "type": "Feature",
      "properties": {
        "norad_id": 33674,
        "name": "FENGYUN 1C DEB",
        "group": "fengyun-1c-debris",
        "lat": -76.31949765806502,
        "lon": -174.01800611490478,
        "alt_km": 864.9844545460282,
        "timestamp": "2025-12-21T07:34:34.802741+00:00",
        "meta_object_name": "FENGYUN 1C DEB",
        "meta_object_id": "1999-025DFK",
        "meta_epoch": "2025-12-18T13:47:35.828736",
        "meta_mean_motion": 13.76913181,
        "meta_eccentricity": 0.02118358,
        "meta_inclination": 98.6051,
        "meta_ra_of_asc_node": 41.9667,
        "meta_arg_of_pericenter": 224.6341,
        "meta_mean_anomaly": 133.7588,
        "meta_ephemeris_type": 0,
        "meta_classification_type": "U",
        "meta_norad_cat_id": 33674,
        "meta_element_set_no": 999,
        "meta_rev_at_epoch": 88445,
        "meta_bstar": 0.0015930456,
        "meta_mean_motion_dot": 1.813e-05,
        "meta_mean_motion_ddot": 0,
        "tle_line1": "1 33674U 99025DFK 25352.57472024  .00001813  00000+0  15930-2 0  9998",
        "tle_line2": "2 33674  98.6051  41.9667 0211835 224.6341 133.7588 13.76913181884453"
      },
      "geometry": {
        "type": "Point",
        "coordinates": [
          -174.01800611490478,
          -76.31949765806502
        ]
      }
    },
    {
      "type": "Feature",
      "properties": {
        "norad_id": 33676,
        "name": "FENGYUN 1C DEB",
        "group": "fengyun-1c-debris",
        "lat": -54.13550154621608,
        "lon": -172.52662869948773,
        "alt_km": 924.1702446451527,
        "timestamp": "2025-12-21T07:34:34.802751+00:00",
        "meta_object_name": "FENGYUN 1C DEB",
        "meta_object_id": "1999-025DFM",
        "meta_epoch": "2025-12-18T08:14:07.391904",
        "meta_mean_motion": 14.35567561,
        "meta_eccentricity": 0.02049105,
        "meta_inclination": 99.0955,
        "meta_ra_of_asc_node": 17.1411,
        "meta_arg_of_pericenter": 53.3055,
        "meta_mean_anomaly": 308.6765,
        "meta_ephemeris_type": 0,
        "meta_classification_type": "U",
        "meta_norad_cat_id": 33676,
        "meta_element_set_no": 999,
        "meta_rev_at_epoch": 65391,
        "meta_bstar": 0.00011173858,
        "meta_mean_motion_dot": 3.53e-06,
        "meta_mean_motion_ddot": 0,
        "tle_line1": "1 33676U 99025DFM 25352.34314111  .00000353  00000+0  11174-3 0  9992",
        "tle_line2": "2 33676  99.0955  17.1411 0204910  53.3055 308.6765 14.35567561653918"
      },
      "geometry": {
        "type": "Point",
        "coordinates": [
          -172.52662869948773,
          -54.13550154621608
        ]
      }
    },
    {
      "type": "Feature",
      "properties": {
        "norad_id": 33678,
        "name": "FENGYUN 1C DEB",
        "group": "fengyun-1c-debris",
        "lat": -3.315262787154431,
        "lon": -119.11133991285739,
        "alt_km": 607.9022470749251,
        "timestamp": "2025-12-21T07:34:34.802760+00:00",
        "meta_object_name": "FENGYUN 1C DEB",
        "meta_object_id": "1999-025DFP",
        "meta_epoch": "2025-12-18T15:40:27.738912",
        "meta_mean_motion": 14.47381159,
        "meta_eccentricity": 0.02051925,
        "meta_inclination": 99.044,
        "meta_ra_of_asc_node": 58.5712,
        "meta_arg_of_pericenter": 219.0752,
        "meta_mean_anomaly": 139.5466,
        "meta_ephemeris_type": 0,
        "meta_classification_type": "U",
        "meta_norad_cat_id": 33678,
        "meta_element_set_no": 999,
        "meta_rev_at_epoch": 95181,
        "meta_bstar": 0.00057827508,
        "meta_mean_motion_dot": 2.7e-05,
        "meta_mean_motion_ddot": 0,
        "tle_line1": "1 33678U 99025DFP 25352.65309883  .00002700  00000+0  57828-3 0  9992",
        "tle_line2": "2 33678  99.0440  58.5712 0205192 219.0752 139.5466 14.47381159951819"
      },
      "geometry": {
        "type": "Point",
        "coordinates": [
          -119.11133991285739,
          -3.315262787154431
        ]
      }
    },
    {
      "type": "Feature",
      "properties": {
        "norad_id": 33679,
        "name": "FENGYUN 1C DEB",
        "group": "fengyun-1c-debris",
        "lat": -21.352191743791256,
        "lon": 67.41002782515073,
        "alt_km": 521.1383439499396,
        "timestamp": "2025-12-21T07:34:34.802769+00:00",
        "meta_object_name": "FENGYUN 1C DEB",
        "meta_object_id": "1999-025DFQ",
        "meta_epoch": "2025-12-20T22:05:05.841600",
        "meta_mean_motion": 15.02943765,
        "meta_eccentricity": 0.01472631,
        "meta_inclination": 99.3502,
        "meta_ra_of_asc_node": 63.24,
        "meta_arg_of_pericenter": 273.2186,
        "meta_mean_anomaly": 85.2195,
        "meta_ephemeris_type": 0,
        "meta_classification_type": "U",
        "meta_norad_cat_id": 33679,
        "meta_element_set_no": 999,
        "meta_rev_at_epoch": 94246,
        "meta_bstar": 0.00097384204,
        "meta_mean_motion_dot": 0.00016524,
        "meta_mean_motion_ddot": 0,
        "tle_line1": "1 33679U 99025DFQ 25354.92020650  .00016524  00000+0  97384-3 0  9997",
        "tle_line2": "2 33679  99.3502  63.2400 0147263 273.2186  85.2195 15.02943765942462"
      },
      "geometry": {
        "type": "Point",
        "coordinates": [
          67.41002782515073,
          -21.352191743791256
        ]
      }
    },
    {
      "type": "Feature",
      "properties": {
        "norad_id": 33682,
        "name": "FENGYUN 1C DEB",
        "group": "fengyun-1c-debris",
        "lat": -41.982861865344134,
        "lon": 51.13829060437863,
        "alt_km": 812.9655216213469,
        "timestamp": "2025-12-21T07:34:34.802779+00:00",
        "meta_object_name": "FENGYUN 1C DEB",
        "meta_object_id": "1999-025DFT",
        "meta_epoch": "2025-12-17T09:31:18.131232",
        "meta_mean_motion": 14.26710697,
        "meta_eccentricity": 0.00282831,
        "meta_inclination": 99.4216,
        "meta_ra_of_asc_node": 38.3301,
        "meta_arg_of_pericenter": 69.3704,
        "meta_mean_anomaly": 291.0503,
        "meta_ephemeris_type": 0,
        "meta_classification_type": "U",
        "meta_norad_cat_id": 33682,
        "meta_element_set_no": 999,
        "meta_rev_at_epoch": 91764,
        "meta_bstar": 0.0011185678,
        "meta_mean_motion_dot": 2.668e-05,
        "meta_mean_motion_ddot": 0,
        "tle_line1": "1 33682U 99025DFT 25351.39673763  .00002668  00000+0  11186-2 0  9997",
        "tle_line2": "2 33682  99.4216  38.3301 0028283  69.3704 291.0503 14.26710697917645"
      },
      "geometry": {
        "type": "Point",
        "coordinates": [
          51.13829060437863,
          -41.982861865344134
        ]
      }
    }
  ]
}